NORAD_CAT_ID,OBJECT_NAME,OBJECT_TYPE,EPOCH,MEAN_MOTION,ECCENTRICITY,INCLINATION,RA_OF_ASC_NODE,ARG_OF_PERICENTER,MEAN_ANOMALY,BSTAR,MEAN_MOTION_DOT,MEAN_MOTION_DDOT,TLE_LINE0,TLE_LINE1,TLE_LINE2,SEMIMAJOR_AXIS,PERIOD,APOGEE,PERIGEE,DECAYED
52583.0,STARLINK-3895,PAYLOAD,2024-03-21 08:42:59,15.08840067,0.000145,53.2159,103.8132,100.3468,259.7688,8.0483e-05,9.93e-06,0.0,0 STARLINK-3895,1 52583U 22051AZ  24081.36319043  .00000993  00000-0  80483-4 0  9995,2 52583  53.2159 103.8132 0001450 100.3468 259.7688 15.08840067103211,6917.88,95.438,540.748,538.742,0.0
52583.0,STARLINK-3895,PAYLOAD,2024-03-21 18:15:17,15.0884877,0.0001377,53.2156,102.0272,84.4086,275.7064,0.00013859,1.919e-05,0.0,0 STARLINK-3895,1 52583U 22051AZ  24081.76062358  .00001919  00000-0  13859-3 0  9994,2 52583  53.2156 102.0272 0001377  84.4086 275.7064 15.08848770103271,6917.854,95.437,540.671,538.766,0.0
52583.0,STARLINK-3895,PAYLOAD,2024-03-22 05:23:00,15.08836044,0.0001754,53.2167,99.9469,102.2304,257.8885,9.796e-05,1.271e-05,0.0,0 STARLINK-3895,1 52583U 22051AZ  24082.22431294  .00001271  00000-0  97960-4 0  9992,2 52583  53.2167  99.9469 0001754 102.2304 257.8885 15.08836044103347,6917.892,95.438,540.971,538.544,0.0
52583.0,STARLINK-3895,PAYLOAD,2024-03-22 10:09:09,15.08841252,0.0001551,53.2163,99.0552,90.7321,269.3848,0.00014496,2.02e-05,0.0,0 STARLINK-3895,1 52583U 22051AZ  24082.42302948  .00002020  00000-0  14496-3 0  9992,2 52583  53.2163  99.0552 0001551  90.7321 269.3848 15.08841252103302,6917.877,95.437,540.815,538.669,0.0
52583.0,STARLINK-3895,PAYLOAD,2024-03-23 08:24:34,15.088365,0.0001387,53.2158,94.8888,81.0117,279.1032,-3.9281e-05,-9.13e-06,0.0,0 STARLINK-3895,1 52583U 22051AZ  24083.35039922 -.00000913  00000-0 -39281-4 0  9995,2 52583  53.2158  94.8888 0001387  81.0117 279.1032 15.08836500103511,6917.891,95.438,540.716,538.797,0.0
52583.0,STARLINK-3895,PAYLOAD,2024-03-23 17:56:52,15.08846309,0.0001353,53.2167,93.103,90.6558,269.4589,-0.00010761,-2e-05,0.0,0 STARLINK-3895,1 52583U 22051AZ  24083.74783328 -.00002000  00000-0 -10761-3 0  9994,2 52583  53.2167  93.1030 0001353  90.6558 269.4589 15.08846309103573,6917.861,95.437,540.662,538.79,0.0
52583.0,STARLINK-3895,PAYLOAD,2024-03-24 05:04:33,15.08855624,0.0001864,53.2158,91.0284,82.8222,277.2982,0.00021512,3.139e-05,0.0,0 STARLINK-3895,1 52583U 22051AZ  24084.21150018  .00003139  00000-0  21512-3 0  9999,2 52583  53.2158  91.0284 0001864  82.8222 277.2982 15.08855624103641,6917.833,95.437,540.987,538.408,0.0
52583.0,STARLINK-3895,PAYLOAD,2024-03-24 06:39:55,15.08867505,0.0001182,53.2179,90.728,86.1325,273.9803,0.00029961,4.487e-05,0.0,0 STARLINK-3895,1 52583U 22051AZ  24084.27772791  .00004487  00000-0  29961-3 0  9996,2 52583  53.2179  90.7280 0001182  86.1325 273.9803 15.08867505103657,6917.796,95.436,540.479,538.844,0.0
52583.0,STARLINK-3895,PAYLOAD,2024-03-25 04:55:22,15.088326,0.0001405,53.218,86.5625,90.0264,270.0889,6.0858e-05,6.81e-06,0.0,0 STARLINK-3895,1 52583U 22051AZ  24085.20511926  .00000681  00000-0  60858-4 0  9994,2 52583  53.2180  86.5625 0001405  90.0264 270.0889 15.08832600103794,6917.903,95.438,540.74,538.796,0.0
52583.0,STARLINK-3895,PAYLOAD,2024-03-25 09:41:31,15.08835692,0.0001416,53.2175,85.6701,93.9224,266.193,8.626e-05,1.085e-05,0.0,0 STARLINK-3895,1 52583U 22051AZ  24085.40383759  .00001085  00000-0  86260-4 0  9991,2 52583  53.2175  85.6701 0001416  93.9224 266.1930 15.08835692103756,6917.894,95.438,540.738,538.779,0.0
52583.0,STARLINK-3895,PAYLOAD,2024-03-26 04:46:10,15.08825305,0.0001257,53.2176,82.1001,106.9876,253.1253,3.4938e-05,2.68e-06,0.0,0 STARLINK-3895,1 52583U 22051AZ  24086.19872988  .00000268  00000-0  34938-4 0  9992,2 52583  53.2176  82.1001 0001257 106.9876 253.1253 15.08825305103948,6917.925,95.438,540.66,538.921,0.0
52583.0,STARLINK-3895,PAYLOAD,2024-03-26 09:32:19,15.08838583,0.0001294,53.2168,81.2124,105.781,254.3324,-0.00021253,-3.669e-05,0.0,0 STARLINK-3895,1 52583U 22051AZ  24086.39744773 -.00003669  00000-0 -21253-3 0  9999,2 52583  53.2168  81.2124 0001294 105.7810 254.3324 15.08838583103978,6917.885,95.438,540.645,538.855,0.0
52583.0,STARLINK-3895,PAYLOAD,2024-03-27 06:12:20,15.08839847,0.0001331,53.2166,77.3489,97.588,262.5263,0.00012727,1.738e-05,0.0,0 STARLINK-3895,1 52583U 22051AZ  24087.25856529  .00001738  00000-0  12727-3 0  9997,2 52583  53.2166  77.3489 0001331  97.5880 262.5263 15.08839847104106,6917.881,95.438,540.667,538.825,0.0
52583.0,STARLINK-3895,PAYLOAD,2024-03-27 15:44:38,15.08845996,0.0001496,53.2172,75.5646,96.3381,263.7782,0.00022831,3.348e-05,0.0,0 STARLINK-3895,1 52583U 22051AZ  24087.65599848  .00003348  00000-0  22831-3 0  9995,2 52583  53.2172  75.5646 0001496  96.3381 263.7782 15.08845996104160,6917.862,95.437,540.762,538.692,0.0
52583.0,STARLINK-3895,PAYLOAD,2024-03-28 06:03:07,15.08835338,0.0001713,53.2191,72.8913,105.3618,254.7563,0.0002246,3.288e-05,0.0,0 STARLINK-3895,1 52583U 22051AZ  24088.25216771  .00003288  00000-0  22460-3 0  9994,2 52583  53.2191  72.8913 0001713 105.3618 254.7563 15.08835338104250,6917.895,95.438,540.945,538.575,0.0
52583.0,STARLINK-3895,PAYLOAD,2024-03-28 21:56:58,15.08846159,0.0001425,53.2188,69.9159,92.3294,267.7862,0.00014393,2.004e-05,0.0,0 STARLINK-3895,1 52583U 22051AZ  24088.91456106  .00002004  00000-0  14393-3 0  9996,2 52583  53.2188  69.9159 0001425  92.3294 267.7862 15.08846159104282,6917.862,95.437,540.712,538.741,0.0
52583.0,STARLINK-3895,PAYLOAD,2024-03-29 09:04:40,15.0884786,0.0001201,53.2166,67.8301,84.7376,275.3753,3.7278e-06,-2.29e-06,0.0,0 STARLINK-3895,1 52583U 22051AZ  24089.37824305 -.00000229  00000-0  37278-5 0  9994,2 52583  53.2166  67.8301 0001201  84.7376 275.3753 15.08847860104422,6917.856,95.437,540.552,538.891,0.0
52583.0,STARLINK-3895,PAYLOAD,2024-03-29 15:26:12,15.08851197,0.0001271,53.2172,66.6413,89.66,270.4538,1.2491e-05,-8.9e-07,0.0,0 STARLINK-3895,1 52583U 22051AZ  24089.64319907 -.00000089  00000-0  12491-4 0  9994,2 52583  53.2172  66.6413 0001271  89.6600 270.4538 15.08851197104392,6917.846,95.437,540.59,538.832,0.0
52583.0,STARLINK-3895,PAYLOAD,2024-03-30 04:09:18,15.08835673,0.0001661,53.2202,64.2654,100.8792,259.2387,-2.4346e-05,-6.75e-06,0.0,0 STARLINK-3895,1 52583U 22051AZ  24090.17313266 -.00000675  00000-0 -24346-4 0  9990,2 52583  53.2202  64.2654 0001661 100.8792 259.2387 15.08835673104543,6917.894,95.438,540.908,538.61,0.0
52583.0,STARLINK-3895,PAYLOAD,2024-03-30 07:20:04,15.08840245,0.0001528,53.219,63.671,98.0365,262.0801,-1.9311e-06,-3.19e-06,0.0,0 STARLINK-3895,1 52583U 22051AZ  24090.30560727 -.00000319  00000-0 -19311-5 0  9993,2 52583  53.2190  63.6710 0001528  98.0365 262.0801 15.08840245104499,6917.88,95.438,540.802,538.688,0.0
52583.0,STARLINK-3895,PAYLOAD,2024-03-30 15:16:59,15.08848096,0.0001468,53.2192,62.1808,83.1475,276.9684,7.2036e-05,8.59e-06,0.0,0 STARLINK-3895,1 52583U 22051AZ  24090.63679937  .00000859  00000-0  72036-4 0  9992,2 52583  53.2192  62.1808 0001468  83.1475 276.9684 15.08848096104612,6917.856,95.437,540.736,538.705,0.0
52583.0,STARLINK-3895,PAYLOAD,2024-03-30 21:38:32,15.08841095,0.0001796,53.2162,60.9937,88.5277,271.5921,0.0001408,1.954e-05,0.0,0 STARLINK-3895,1 52583U 22051AZ  24090.90176176  .00001954  00000-0  14080-3 0  9990,2 52583  53.2162  60.9937 0001796  88.5277 271.5921 15.08841095104584,6917.877,95.437,540.984,538.5,0.0
52583.0,STARLINK-3895,PAYLOAD,2024-03-31 05:35:28,15.08837881,0.0001314,53.218,59.5053,93.1056,267.0086,5.1294e-05,5.29e-06,0.0,0 STARLINK-3895,1 52583U 22051AZ  24091.23296666  .00000529  00000-0  51294-4 0  9990,2 52583  53.2180  59.5053 0001314  93.1056 267.0086 15.08837881104704,6917.887,95.438,540.661,538.843,0.0
52583.0,STARLINK-3895,PAYLOAD,2024-03-31 07:10:51,15.08841188,0.0001292,53.2169,59.2068,92.3605,267.7535,7.6688e-05,9.33e-06,0.0,0 STARLINK-3895,1 52583U 22051AZ  24091.29920391  .00000933  00000-0  76688-4 0  9998,2 52583  53.2169  59.2068 0001292  92.3605 267.7535 15.08841188104644,6917.877,95.437,540.636,538.848,0.0
52583.0,STARLINK-3895,PAYLOAD,2024-03-31 15:07:46,15.08847873,0.0001306,53.2171,57.7206,92.2491,267.865,9.222e-05,1.18e-05,0.0,0 STARLINK-3895,1 52583U 22051AZ  24091.63039825  .00001180  00000-0  92220-4 0  9994,2 52583  53.2171  57.7206 0001306  92.2491 267.8650 15.08847873104761,6917.856,95.437,540.625,538.818,0.0
52583.0,STARLINK-3895,PAYLOAD,2024-04-01 03:50:52,15.08833166,0.0001443,53.2195,55.3427,98.1468,261.9687,8.9889e-05,1.143e-05,0.0,0 STARLINK-3895,1 52583U 22051AZ  24092.16032993  .00001143  00000-0  89889-4 0  9998,2 52583  53.2195  55.3427 0001443  98.1468 261.9687 15.08833166104841,6917.901,95.438,540.765,538.768,0.0
52583.0,STARLINK-3895,PAYLOAD,2024-04-01 07:01:38,15.08840248,0.0001584,53.22,54.7473,97.7174,262.3998,4.9448e-05,4.99e-06,0.0,0 STARLINK-3895,1 52583U 22051AZ  24092.29280738  .00000499  00000-0  49448-4 0  9994,2 52583  53.2200  54.7473 0001584  97.7174 262.3998 15.08840248104790,6917.88,95.438,540.84,538.649,0.0
52583.0,STARLINK-3895,PAYLOAD,2024-04-01 14:58:34,15.08842636,0.0001703,53.2208,53.2598,91.3045,268.8142,6.6386e-05,7.69e-06,0.0,0 STARLINK-3895,1 52583U 22051AZ  24092.62400527  .00000769  00000-0  66386-4 0  9991,2 52583  53.2208  53.2598 0001703  91.3045 268.8142 15.08842636104919,6917.872,95.437,540.915,538.559,0.0
52583.0,STARLINK-3895,PAYLOAD,2024-04-02 06:52:25,15.08840604,0.0001476,53.2202,50.2853,112.2354,247.8795,0.00018252,2.618e-05,0.0,0 STARLINK-3895,1 52583U 22051AZ  24093.28640163  .00002618  00000-0  18252-3 0  9999,2 52583  53.2202  50.2853 0001476 112.2354 247.8795 15.08840604104944,6917.879,95.438,540.765,538.722,0.0
52583.0,STARLINK-3895,PAYLOAD,2024-04-03 01:57:03,15.08834186,0.0001482,53.2192,46.7169,100.4033,259.7126,5.1928e-05,5.38e-06,0.0,0 STARLINK-3895,1 52583U 22051AZ  24094.08128825  .00000538  00000-0  51928-4 0  9991,2 52583  53.2192  46.7169 0001482 100.4033 259.7126 15.08834186105132,6917.898,95.438,540.788,538.738,0.0
